[{"OBJECT_NAME":"IRIDIUM 105","OBJECT_ID":"2017-003E","EPOCH":"2026-03-09T19:29:46.518144","MEAN_MOTION":14.34401202,"ECCENTRICITY":0.0002251,"INCLINATION":86.3921,"RA_OF_ASC_NODE":98.4421,"ARG_OF_PERICENTER":92.6468,"MEAN_ANOMALY":267.4986,"EPHEMERIS_TYPE":0,"CLASSIFICATION_TYPE":"U","NORAD_CAT_ID":41921,"ELEMENT_SET_NO":999,"REV_AT_EPOCH":48089,"BSTAR":7.7196279e-5,"MEAN_MOTION_DOT":2.37e-6,"MEAN_MOTION_DDOT":0},{"OBJECT_NAME":"CZ-6A DEB","OBJECT_ID":"2024-140ADB","EPOCH":"2026-03-09T15:15:36.882720","MEAN_MOTION":14.28084454,"ECCENTRICITY":0.0032667,"INCLINATION":88.9955,"RA_OF_ASC_NODE":285.2328,"ARG_OF_PERICENTER":157.4019,"MEAN_ANOMALY":202.8622,"EPHEMERIS_TYPE":0,"CLASSIFICATION_TYPE":"U","NORAD_CAT_ID":61835,"ELEMENT_SET_NO":999,"REV_AT_EPOCH":7673,"BSTAR":0.0012497,"MEAN_MOTION_DOT":3.136e-5,"MEAN_MOTION_DDOT":0}]
